{
  "type": "FeatureCollection",
  "features": [
    {
      "type": "Feature",
      "properties": {
        "goldPreset": "gold_mangabeiras",
        "source": "mca_gold_synthetic",
        "targetAreaHa": 1125.4836
      },
      "geometry": {
        "type": "Polygon",
        "coordinates": [
          [
            [
              -46.100258135419686,
              -16.37799925687245
            ],
            [
              -46.10026351694289,
              -16.377581517987835
            ],
            [
              -46.10027958219077,
              -16.377164031627796
            ],
            [
              -46.10030632141773,
              -16.376747049268058
            ],
            [
              -46.1003437184489,
              -16.37633082207913
            ],
            [
              -46.10039175069004,
              -16.375915600775063
            ],
            [
              -46.10045038914133,
              -16.375501635462385
            ],
            [
              -46.10051959841499,
              -16.37508917548952
            ],
            [
              -46.10059933675674,
              -16.374678469296562
            ],
            [
              -46.100689556071146,
              -16.37426976426568
            ],
            [
              -46.1007902019507,
              -16.37386330657214
            ],
            [
              -46.10090121370878,
              -16.373459341036014
            ],
            [
              -46.10102252441634,
              -16.37305811097477
            ],
            [
              -46.10115406094234,
              -16.37265985805676
            ],
            [
              -46.10129574399801,
              -16.37226482215565
            ],
            [
              -46.101447488184675,
              -16.37187324120601
            ],
            [
              -46.101609202045346,
              -16.37148535106003
            ],
            [
              -46.10178078811996,
              -16.371101385345494
            ],
            [
              -46.101962143004165,
              -16.370721575325128
            ],
            [
              -46.10215315741177,
              -16.370346149757317
            ],
            [
              -46.10235371624065,
              -16.3699753347584
            ],
            [
              -46.10256369864214,
              -16.36960935366654
            ],
            [
              -46.10278297809405,
              -16.36924842690721
            ],
            [
              -46.10301142247681,
              -16.368892771860526
            ],
            [
              -46.10324889415327,
              -16.36854260273037
            ],
            [
              -46.10349525005159,
              -16.3681981304154
            ],
            [
              -46.10375034175153,
              -16.36785956238213
            ],
            [
              -46.104014015573895,
              -16.367527102540006
            ],
            [
              -46.10428611267318,
              -16.367200951118654
            ],
            [
              -46.104566469133275,
              -16.366881304547363
            ],
            [
              -46.10485491606624,
              -16.36656835533682
            ],
            [
              -46.10515127971406,
              -16.36626229196325
            ],
            [
              -46.10545538155337,
              -16.365963298754938
            ],
            [
              -46.105767038402945,
              -16.365671555781287
            ],
            [
              -46.106086062534075,
              -16.36538723874444
            ],
            [
              -46.10641226178365,
              -16.365110518873507
            ],
            [
              -46.10674543966989,
              -16.364841562821518
            ],
            [
              -46.10708539551066,
              -16.364580532565096
            ],
            [
              -46.10743192454435,
              -16.364327585306985
            ],
            [
              -46.10778481805317,
              -16.364082873381424
            ],
            [
              -46.10814386348882,
              -16.36384654416247
            ],
            [
              -46.108508844600514,
              -16.363618739975287
            ],
            [
              -46.1088795415651,
              -16.363399598010506
            ],
            [
              -46.10925573111949,
              -16.363189250241653
            ],
            [
              -46.10963718669502,
              -16.362987823345712
            ],
            [
              -46.110023678553844,
              -16.3627954386269
            ],
            [
              -46.11041497392727,
              -16.362612211943684
            ],
            [
              -46.11081083715584,
              -16.362438253638995
            ],
            [
              -46.11121102983119,
              -16.362273668473907
            ],
            [
              -46.11161531093957,
              -16.362118555564518
            ],
            [
              -46.11202343700686,
              -16.36197300832236
            ],
            [
              -46.11243516224518,
              -16.361837114398142
            ],
            [
              -46.11285023870073,
              -16.361710955629043
            ],
            [
              -46.11326841640311,
              -16.36159460798943
            ],
            [
              -46.113689443515696,
              -16.36148814154518
            ],
            [
              -46.114113066487214,
              -16.36139162041145
            ],
            [
              -46.11453903020433,
              -16.36130510271419
            ],
            [
              -46.11496707814518,
              -16.36122864055507
            ],
            [
              -46.11539695253371,
              -16.361162279980206
            ],
            [
              -46.11582839449484,
              -16.361106060952398
            ],
            [
              -46.11626114421019,
              -16.361060017327116
            ],
            [
              -46.11669494107449,
              -16.361024176832096
            ],
            [
              -46.117129523852334,
              -16.360998561050693
            ],
            [
              -46.11756463083542,
              -16.360983185408863
            ],
            [
              -46.118,
              -16.36097805916591
            ],
            [
              -46.118435369164594,
              -16.360983185408863
            ],
            [
              -46.11887047614768,
              -16.360998561050693
            ],
            [
              -46.11930505892552,
              -16.361024176832096
            ],
            [
              -46.11973885578982,
              -16.361060017327116
            ],
            [
              -46.12017160550517,
              -16.361106060952398
            ],
            [
              -46.120603047466304,
              -16.361162279980206
            ],
            [
              -46.121032921854834,
              -16.36122864055507
            ],
            [
              -46.121460969795685,
              -16.36130510271419
            ],
            [
              -46.1218869335128,
              -16.36139162041145
            ],
            [
              -46.122310556484315,
              -16.36148814154518
            ],
            [
              -46.1227315835969,
              -16.36159460798943
            ],
            [
              -46.12314976129928,
              -16.361710955629043
            ],
            [
              -46.123564837754834,
              -16.361837114398142
            ],
            [
              -46.12397656299315,
              -16.36197300832236
            ],
            [
              -46.12438468906044,
              -16.362118555564518
            ],
            [
              -46.12478897016882,
              -16.362273668473907
            ],
            [
              -46.12518916284417,
              -16.362438253638995
            ],
            [
              -46.12558502607274,
              -16.362612211943684
            ],
            [
              -46.12597632144617,
              -16.3627954386269
            ],
            [
              -46.12636281330499,
              -16.362987823345712
            ],
            [
              -46.126744268880515,
              -16.363189250241653
            ],
            [
              -46.12712045843491,
              -16.363399598010506
            ],
            [
              -46.1274911553995,
              -16.363618739975287
            ],
            [
              -46.12785613651119,
              -16.36384654416247
            ],
            [
              -46.12821518194684,
              -16.364082873381424
            ],
            [
              -46.12856807545566,
              -16.364327585306985
            ],
            [
              -46.12891460448935,
              -16.364580532565096
            ],
            [
              -46.12925456033012,
              -16.364841562821518
            ],
            [
              -46.12958773821635,
              -16.365110518873507
            ],
            [
              -46.129913937465936,
              -16.36538723874444
            ],
            [
              -46.130232961597066,
              -16.365671555781287
            ],
            [
              -46.13054461844664,
              -16.365963298754938
            ],
            [
              -46.130848720285954,
              -16.36626229196325
            ],
            [
              -46.131145083933774,
              -16.36656835533682
            ],
            [
              -46.13143353086674,
              -16.366881304547363
            ],
            [
              -46.13171388732683,
              -16.367200951118654
            ],
            [
              -46.131985984426116,
              -16.367527102540006
            ],
            [
              -46.13224965824848,
              -16.36785956238213
            ],
            [
              -46.132504749948424,
              -16.3681981304154
            ],
            [
              -46.132751105846744,
              -16.36854260273037
            ],
            [
              -46.1329885775232,
              -16.368892771860526
            ],
            [
              -46.13321702190596,
              -16.36924842690721
            ],
            [
              -46.13343630135787,
              -16.36960935366654
            ],
            [
              -46.13364628375936,
              -16.3699753347584
            ],
            [
              -46.133846842588234,
              -16.370346149757317
            ],
            [
              -46.134037856995846,
              -16.370721575325128
            ],
            [
              -46.13421921188005,
              -16.371101385345494
            ],
            [
              -46.134390797954666,
              -16.37148535106003
            ],
            [
              -46.134552511815336,
              -16.37187324120601
            ],
            [
              -46.134704256002,
              -16.37226482215565
            ],
            [
              -46.13484593905767,
              -16.37265985805676
            ],
            [
              -46.134977475583675,
              -16.37305811097477
            ],
            [
              -46.13509878629123,
              -16.373459341036014
            ],
            [
              -46.13520979804931,
              -16.37386330657214
            ],
            [
              -46.13531044392886,
              -16.37426976426568
            ],
            [
              -46.135400663243274,
              -16.374678469296562
            ],
            [
              -46.13548040158502,
              -16.37508917548952
            ],
            [
              -46.13554961085868,
              -16.375501635462385
            ],
            [
              -46.135608249309975,
              -16.375915600775063
            ],
            [
              -46.135656281551114,
              -16.37633082207913
            ],
            [
              -46.13569367858228,
              -16.376747049268058
            ],
            [
              -46.13572041780924,
              -16.377164031627796
            ],
            [
              -46.13573648305712,
              -16.377581517987835
            ],
            [
              -46.135741864580325,
              -16.37799925687245
            ],
            [
              -46.13573655906857,
              -16.37841699665219
            ],
            [
              -46.13572056964901,
              -16.378834485695464
            ],
            [
              -46.13569390588459,
              -16.379251472520078
            ],
            [
              -46.135656583768366,
              -16.37966770594475
            ],
            [
              -46.135608625714106,
              -16.380082935240434
            ],
            [
              -46.1355500605429,
              -16.38049691028133
            ],
            [
              -46.135480923466,
              -16.38090938169559
            ],
            [
              -46.135401256063744,
              -16.381320101015547
            ],
            [
              -46.13531110626068,
              -16.38172882082741
            ],
            [
              -46.13521052829685,
              -16.38213529492031
            ],
            [
              -46.135099582695275,
              -16.382539278434667
            ],
            [
              -46.13497833622561,
              -16.38294052800969
            ],
            [
              -46.13484686186413,
              -16.383338801930037
            ],
            [
              -46.13470523874987,
              -16.383733860271423
            ],
            [
              -46.13455355213709,
              -16.38412546504523
            ],
            [
              -46.13439189334408,
              -16.384513380341875
            ],
            [
              -46.13422035969823,
              -16.384897372472974
            ],
            [
              -46.1340390544776,
              -16.385277210112182
            ],
            [
              -46.13384808684873,
              -16.385652664434552
            ],
            [
              -46.13364757180107,
              -16.38602350925448
            ],
            [
              -46.133437630077765,
              -16.386389521161973
            ],
            [
              -46.13321838810306,
              -16.386750479657316
            ],
            [
              -46.1329899779062,
              -16.387106167283928
            ],
            [
              -46.132752537042,
              -16.387456369759462
            ],
            [
              -46.132506208508076,
              -16.387800876104897
            ],
            [
              -46.13225114065873,
              -16.388139478771752
            ],
            [
              -46.131987487115694,
              -16.388471973767153
            ],
            [
              -46.13171540667563,
              -16.388798160776773
            ],
            [
              -46.131435063214525,
              -16.3891178432856
            ],
            [
              -46.13114662558898,
              -16.389430828696362
            ],
            [
              -46.13085026753459,
              -16.38973692844563
            ],
            [
              -46.130546167561256,
              -16.39003595811748
            ],
            [
              -46.13023450884572,
              -16.390327737554674
            ],
            [
              -46.12991547912115,
              -16.390612090967217
            ],
            [
              -46.12958927056416,
              -16.390888847038372
            ],
            [
              -46.12925607967895,
              -16.391157839027898
            ],
            [
              -46.128916107178966,
              -16.39141890487259
            ],
            [
              -46.12856955786595,
              -16.39167188728398
            ],
            [
              -46.12821664050655,
              -16.39191663384313
            ],
            [
              -46.12785756770651,
              -16.392152997092555
            ],
            [
              -46.12749255578256,
              -16.39238083462511
            ],
            [
              -46.12712182463206,
              -16.392600009169822
            ],
            [
              -46.12674559760048,
              -16.392810388674686
            ],
            [
              -46.126364101346766,
              -16.393011846386262
            ],
            [
              -46.12597756570674,
              -16.393204260926094
            ],
            [
              -46.12558622355458,
              -16.39338751636388
            ],
            [
              -46.12519031066243,
              -16.393561502287398
            ],
            [
              -46.124790065558315,
              -16.39372611386906
            ],
            [
              -46.124385729382276,
              -16.393881251929113
            ],
            [
              -46.1239775457411,
              -16.39402682299545
            ],
            [
              -46.12356576056138,
              -16.394162739359942
            ],
            [
              -46.12315062194129,
              -16.394288919131373
            ],
            [
              -46.12273238000102,
              -16.39440528628477
            ],
            [
              -46.12231128673193,
              -16.39451177070726
            ],
            [
              -46.12188759584468,
              -16.394608308240343
            ],
            [
              -46.12146156261621,
              -16.394694840718596
            ],
            [
              -46.121033443735854,
              -16.39477131600471
            ],
            [
              -46.12060349715056,
              -16.394837688020967
            ],
            [
              -46.120171981909344,
              -16.394893916776997
            ],
            [
              -46.11973915800711,
              -16.394939968393896
            ],
            [
              -46.119305286227856,
              -16.39497581512467
            ],
            [
              -46.11887062798747,
              -16.395001435370943
            ],
            [
              -46.11843544517605,
              -16.395016813696003
            ],
            [
              -46.118,
              -16.39502194083409
            ],
            [
              -46.117564554823964,
              -16.395016813696003
            ],
            [
              -46.11712937201254,
              -16.395001435370943
            ],
            [
              -46.116694713772155,
              -16.39497581512467
            ],
            [
              -46.116260841992904,
              -16.394939968393896
            ],
            [
              -46.11582801809067,
              -16.394893916776997
            ],
            [
              -46.11539650284945,
              -16.394837688020967
            ],
            [
              -46.11496655626416,
              -16.39477131600471
            ],
            [
              -46.1145384373838,
              -16.394694840718596
            ],
            [
              -46.11411240415533,
              -16.394608308240343
            ],
            [
              -46.11368871326808,
              -16.39451177070726
            ],
            [
              -46.11326761999899,
              -16.39440528628477
            ],
            [
              -46.11284937805872,
              -16.394288919131373
            ],
            [
              -46.112434239438635,
              -16.394162739359942
            ],
            [
              -46.11202245425891,
              -16.39402682299545
            ],
            [
              -46.111614270617736,
              -16.393881251929113
            ],
            [
              -46.111209934441696,
              -16.39372611386906
            ],
            [
              -46.11080968933758,
              -16.393561502287398
            ],
            [
              -46.11041377644543,
              -16.39338751636388
            ],
            [
              -46.11002243429327,
              -16.393204260926094
            ],
            [
              -46.109635898653245,
              -16.393011846386262
            ],
            [
              -46.10925440239953,
              -16.392810388674686
            ],
            [
              -46.10887817536795,
              -16.392600009169822
            ],
            [
              -46.10850744421745,
              -16.39238083462511
            ],
            [
              -46.1081424322935,
              -16.392152997092555
            ],
            [
              -46.10778335949346,
              -16.39191663384313
            ],
            [
              -46.10743044213406,
              -16.39167188728398
            ],
            [
              -46.107083892821045,
              -16.39141890487259
            ],
            [
              -46.10674392032106,
              -16.391157839027898
            ],
            [
              -46.10641072943585,
              -16.390888847038372
            ],
            [
              -46.10608452087886,
              -16.390612090967217
            ],
            [
              -46.105765491154294,
              -16.390327737554674
            ],
            [
              -46.10545383243875,
              -16.39003595811748
            ],
            [
              -46.10514973246542,
              -16.38973692844563
            ],
            [
              -46.10485337441103,
              -16.389430828696362
            ],
            [
              -46.104564936785486,
              -16.3891178432856
            ],
            [
              -46.10428459332438,
              -16.388798160776773
            ],
            [
              -46.10401251288432,
              -16.388471973767153
            ],
            [
              -46.10374885934128,
              -16.388139478771752
            ],
            [
              -46.103493791491935,
              -16.387800876104897
            ],
            [
              -46.10324746295801,
              -16.387456369759462
            ],
            [
              -46.10301002209381,
              -16.387106167283928
            ],
            [
              -46.10278161189695,
              -16.386750479657316
            ],
            [
              -46.102562369922246,
              -16.386389521161973
            ],
            [
              -46.10235242819894,
              -16.38602350925448
            ],
            [
              -46.10215191315128,
              -16.385652664434552
            ],
            [
              -46.101960945522414,
              -16.385277210112182
            ],
            [
              -46.10177964030178,
              -16.384897372472974
            ],
            [
              -46.10160810665593,
              -16.384513380341875
            ],
            [
              -46.10144644786292,
              -16.38412546504523
            ],
            [
              -46.10129476125014,
              -16.383733860271423
            ],
            [
              -46.10115313813588,
              -16.383338801930037
            ],
            [
              -46.101021663774404,
              -16.38294052800969
            ],
            [
              -46.100900417304736,
              -16.382539278434667
            ],
            [
              -46.10078947170316,
              -16.38213529492031
            ],
            [
              -46.10068889373933,
              -16.38172882082741
            ],
            [
              -46.10059874393627,
              -16.381320101015547
            ],
            [
              -46.10051907653401,
              -16.38090938169559
            ],
            [
              -46.100449939457114,
              -16.38049691028133
            ],
            [
              -46.100391374285905,
              -16.380082935240434
            ],
            [
              -46.100343416231645,
              -16.37966770594475
            ],
            [
              -46.10030609411542,
              -16.379251472520078
            ],
            [
              -46.100279430351,
              -16.378834485695464
            ],
            [
              -46.10026344093144,
              -16.37841699665219
            ],
            [
              -46.100258135419686,
              -16.37799925687245
            ]
          ]
        ]
      }
    }
  ]
}