{
  "type": "FeatureCollection",
  "features": [
    {
      "type": "Feature",
      "properties": {
        "Name": "7422",
        "descriptio": null,
        "timestamp": null,
        "begin": null,
        "end": null,
        "altitudeMo": null,
        "tessellate": -1,
        "extrude": 0,
        "visibility": -1,
        "drawOrder": null,
        "icon": null,
        "DESC": "\n",
        "5E6": "\n",
        "source": "mca_gold_shp",
        "goldPreset": "gold_palmeiras",
        "scaledToAreaHa": 1747.9104,
        "areaBeforeScaleHa": 1759.1706058742159
      },
      "geometry": {
        "type": "Polygon",
        "coordinates": [
          [
            [
              -47.21912949981669,
              -16.699918455508627,
              -0.000008601972092983091
            ],
            [
              -47.21915133257903,
              -16.699931055492936,
              -0.000008601972092983091
            ],
            [
              -47.21925322949352,
              -16.699989861533048,
              -0.000008601972092983091
            ],
            [
              -47.21964069754404,
              -16.69995457642572,
              -0.000008602900430563746
            ],
            [
              -47.220063183912885,
              -16.69980575569397,
              -0.000008603828768144402
            ],
            [
              -47.22020027771532,
              -16.69930674311935,
              -0.000008600115418818577
            ],
            [
              -47.22042492554374,
              -16.69901148039642,
              -0.000008601972092983091
            ],
            [
              -47.220875081737574,
              -16.69899975087152,
              -0.000008601972092983091
            ],
            [
              -47.221343926151235,
              -16.698793491454705,
              -0.000008600115418818577
            ],
            [
              -47.221542930866576,
              -16.69832535500378,
              -0.000008601043756399231
            ],
            [
              -47.22185388210045,
              -16.69798005214107,
              -0.000008601043756399231
            ],
            [
              -47.222144731147694,
              -16.69814611586518,
              -0.000008600115418818577
            ],
            [
              -47.222239489020865,
              -16.698474901984703,
              -0.000008601972092983091
            ],
            [
              -47.22260721675207,
              -16.69854642057263,
              -0.000008600115418818577
            ],
            [
              -47.222881481294394,
              -16.698539867549652,
              -0.000008600115418818577
            ],
            [
              -47.223106774952726,
              -16.698436047136518,
              -0.000008600115418818577
            ],
            [
              -47.223225486768456,
              -16.69823123469351,
              -0.000008600115418818577
            ],
            [
              -47.22322899013648,
              -16.697945127895945,
              -0.000008601043756399231
            ],
            [
              -47.22310182877129,
              -16.697654826080242,
              -0.00000859825874465406
            ],
            [
              -47.2228635069996,
              -16.697406494490448,
              -0.000008597330408070201
            ],
            [
              -47.22265539024619,
              -16.697356985708197,
              -0.000008599187082234715
            ],
            [
              -47.22232601645874,
              -16.6973460267064,
              -0.000008599187082234715
            ],
            [
              -47.22223750724879,
              -16.69674531526552,
              -0.00000859825874465406
            ],
            [
              -47.22240710110282,
              -16.69656236531045,
              -0.000008599187082234715
            ],
            [
              -47.222688363413454,
              -16.696564510311195,
              -0.000008597330408070201
            ],
            [
              -47.22298756230276,
              -16.696631849051794,
              -0.00000859825874465406
            ],
            [
              -47.22312639312281,
              -16.696547051393516,
              -0.00000859825874465406
            ],
            [
              -47.22328713492959,
              -16.696244298223725,
              -0.00000859825874465406
            ],
            [
              -47.22317011979311,
              -16.69593850596907,
              -0.000008597330408070201
            ],
            [
              -47.22296961542912,
              -16.695761096361718,
              -0.00000859825874465406
            ],
            [
              -47.22274385061132,
              -16.69536178229219,
              -0.000008597330408070201
            ],
            [
              -47.22270483901639,
              -16.695032621143017,
              -0.000008597330408070201
            ],
            [
              -47.22279979097425,
              -16.694739192536883,
              -0.000008596402070489547
            ],
            [
              -47.22296984320354,
              -16.694632303510435,
              -0.000008596402070489547
            ],
            [
              -47.223142387949565,
              -16.694755070348105,
              -0.000008596402070489547
            ],
            [
              -47.22335824395202,
              -16.69514862646141,
              -0.000008597330408070201
            ],
            [
              -47.22354588166337,
              -16.69531352956513,
              -0.000008597330408070201
            ],
            [
              -47.22366008988075,
              -16.695328952466667,
              -0.000008597330408070201
            ],
            [
              -47.2238703290393,
              -16.695164350011996,
              -0.000008597330408070201
            ],
            [
              -47.224008118280835,
              -16.695094103654636,
              -0.000008595473732908892
            ],
            [
              -47.22413279097913,
              -16.695016002081967,
              -0.000008596402070489547
            ],
            [
              -47.224169504772135,
              -16.69477354876698,
              -0.000008595473732908892
            ],
            [
              -47.224171811896895,
              -16.69432059606938,
              -0.000008596402070489547
            ],
            [
              -47.22399889317387,
              -16.69362320924363,
              -0.000008595473732908892
            ],
            [
              -47.224001104030435,
              -16.693433225022595,
              -0.00000859454539632503
            ],
            [
              -47.22416003591212,
              -16.693175997195606,
              -0.00000859454539632503
            ],
            [
              -47.22431339941096,
              -16.69301227058653,
              -0.000008595473732908892
            ],
            [
              -47.224360664276105,
              -16.69269563331969,
              -0.00000859454539632503
            ],
            [
              -47.224454385686045,
              -16.69254374961249,
              -0.000008595473732908892
            ],
            [
              -47.22471648211331,
              -16.692379438629068,
              -0.000008593617058744376
            ],
            [
              -47.22491361158109,
              -16.692249017005853,
              -0.000008593617058744376
            ],
            [
              -47.22518424934691,
              -16.69213878432808,
              -0.00000859454539632503
            ],
            [
              -47.22559094078031,
              -16.691777859339293,
              -0.000008591760384579862
            ],
            [
              -47.22599026811082,
              -16.691287290486915,
              -0.00000859454539632503
            ],
            [
              -47.226121142758586,
              -16.691049654608438,
              -0.00000859454539632503
            ],
            [
              -47.226067651848155,
              -16.690849484505947,
              -0.000008591760384579862
            ],
            [
              -47.225861319080195,
              -16.690675365420077,
              -0.000008593617058744376
            ],
            [
              -47.22546121760689,
              -16.690332926716383,
              -0.000008591760384579862
            ],
            [
              -47.225024725255196,
              -16.690020694505623,
              -0.000008589903710415346
            ],
            [
              -47.22482046561015,
              -16.68981230041525,
              -0.000008591760384579862
            ],
            [
              -47.22472059957761,
              -16.68956365949992,
              -0.000008591760384579862
            ],
            [
              -47.22475765424127,
              -16.689368362112383,
              -0.000008590832046999207
            ],
            [
              -47.22491654206527,
              -16.68929609946934,
              -0.000008590832046999207
            ],
            [
              -47.225091351701394,
              -16.689224940114663,
              -0.000008590832046999207
            ],
            [
              -47.22543116439539,
              -16.68919185734857,
              -0.000008591760384579862
            ],
            [
              -47.225770190415574,
              -16.689199850109823,
              -0.000008591760384579862
            ],
            [
              -47.22584148302019,
              -16.68909237398331,
              -0.000008591760384579862
            ],
            [
              -47.22579941695108,
              -16.688944245742594,
              -0.000008589903710415346
            ],
            [
              -47.225415381977996,
              -16.68856237124963,
              -0.000008591760384579862
            ],
            [
              -47.22502385659857,
              -16.687382384289496,
              -0.000008589903710415346
            ],
            [
              -47.224625776765436,
              -16.686435064860035,
              -0.000008588047036250832
            ],
            [
              -47.22476198589544,
              -16.68573835972167,
              -0.000008588047036250832
            ],
            [
              -47.22513892434614,
              -16.685400926462677,
              -0.000008587118698670177
            ],
            [
              -47.225216463534935,
              -16.685021252921327,
              -0.000008587118698670177
            ],
            [
              -47.22541170015694,
              -16.68476423943017,
              -0.000008586190362086317
            ],
            [
              -47.22555836309044,
              -16.684315345373186,
              -0.000008586190362086317
            ],
            [
              -47.22549611576494,
              -16.684095825469765,
              -0.000008584333686925008
            ],
            [
              -47.22527989990999,
              -16.683978292956255,
              -0.000008584333686925008
            ],
            [
              -47.22488525380686,
              -16.68395924777022,
              -0.000008585262024505661
            ],
            [
              -47.2245936905785,
              -16.68396072229543,
              -0.000008586190362086317
            ],
            [
              -47.22451679628779,
              -16.683766934371032,
              -0.000008585262024505661
            ],
            [
              -47.224175087224864,
              -16.68374518605684,
              -0.000008586190362086317
            ],
            [
              -47.22411062473981,
              -16.683585665791167,
              -0.000008585262024505661
            ],
            [
              -47.22419511542927,
              -16.68354577337507,
              -0.000008586190362086317
            ],
            [
              -47.22499099490898,
              -16.68329187520353,
              -0.000008584333686925008
            ],
            [
              -47.225508155661316,
              -16.68327748974031,
              -0.000008584333686925008
            ],
            [
              -47.22616764722835,
              -16.68332415785269,
              -0.000008586190362086317
            ],
            [
              -47.226809868311534,
              -16.683146007451455,
              -0.000008584333686925008
            ],
            [
              -47.22722860183427,
              -16.682722685670072,
              -0.000008584333686925008
            ],
            [
              -47.22738934358796,
              -16.682498973182785,
              -0.000008583405350341147
            ],
            [
              -47.22735856586627,
              -16.682162822681708,
              -0.00000858154867617663
            ],
            [
              -47.22702979725267,
              -16.68176043559642,
              -0.000008584333686925008
            ],
            [
              -47.226315828498684,
              -16.681107056008212,
              -0.000008585262024505661
            ],
            [
              -47.22584430641808,
              -16.68092729743286,
              -0.00000858154867617663
            ],
            [
              -47.22520236473923,
              -16.68066243801793,
              -0.000008580620338595976
            ],
            [
              -47.22492158389224,
              -16.680306837139465,
              -0.000008580620338595976
            ],
            [
              -47.224937195678706,
              -16.679946444883484,
              -0.000008582477012760492
            ],
            [
              -47.225174861258154,
              -16.679561152984682,
              -0.00000858154867617663
            ],
            [
              -47.22535168912543,
              -16.679290167291402,
              -0.000008580620338595976
            ],
            [
              -47.22564016275828,
              -16.679108644201115,
              -0.000008580620338595976
            ],
            [
              -47.22593753087318,
              -16.67908506855927,
              -0.000008579692002012117
            ],
            [
              -47.22626867711739,
              -16.67919151857922,
              -0.000008580620338595976
            ],
            [
              -47.22667023452652,
              -16.67935011394963,
              -0.000008580620338595976
            ],
            [
              -47.227117269030146,
              -16.679348953882666,
              -0.00000858154867617663
            ],
            [
              -47.22737283782118,
              -16.679145192171635,
              -0.000008579692002012117
            ],
            [
              -47.22743863864076,
              -16.678870943050434,
              -0.000008579692002012117
            ],
            [
              -47.22726568712011,
              -16.67859932065303,
              -0.000008580620338595976
            ],
            [
              -47.22695490109851,
              -16.67836961005233,
              -0.000008579692002012117
            ],
            [
              -47.226112192121434,
              -16.677892849305884,
              -0.000008579692002012117
            ],
            [
              -47.22572895600467,
              -16.677404783912287,
              -0.000008578763664431462
            ],
            [
              -47.2256046821193,
              -16.676874850821857,
              -0.000008578763664431462
            ],
            [
              -47.22569798570902,
              -16.676639790843797,
              -0.000008578763664431462
            ],
            [
              -47.22606104238025,
              -16.676586430250794,
              -0.000008577835326850807
            ],
            [
              -47.22647348966149,
              -16.676456575906982,
              -0.000008578763664431462
            ],
            [
              -47.22688545149788,
              -16.676287223657457,
              -0.000008577835326850807
            ],
            [
              -47.22733960746871,
              -16.675798975596404,
              -0.000008577835326850807
            ],
            [
              -47.2275853711775,
              -16.675561665091752,
              -0.000008577835326850807
            ],
            [
              -47.22805051856437,
              -16.675383938645822,
              -0.000008576906990266946
            ],
            [
              -47.228407148667145,
              -16.67534439583344,
              -0.000008577835326850807
            ],
            [
              -47.22880577563785,
              -16.675170331478572,
              -0.000008576906990266946
            ],
            [
              -47.22912367732857,
              -16.67465542252456,
              -0.000008576906990266946
            ],
            [
              -47.22977313092315,
              -16.673335891176386,
              -0.000008575978652686291
            ],
            [
              -47.23022516783351,
              -16.672308522087775,
              -0.000008574121978521777
            ],
            [
              -47.230167369072774,
              -16.67162942640426,
              -0.000008574121978521777
            ],
            [
              -47.23010693853644,
              -16.671213012306932,
              -0.000008573193641937918
            ],
            [
              -47.22996858558673,
              -16.67074001020884,
              -0.000008573193641937918
            ],
            [
              -47.22963223340554,
              -16.670287988403796,
              -0.000008571336966776608
            ],
            [
              -47.22955523327687,
              -16.66972548336862,
              -0.000008571336966776608
            ],
            [
              -47.22940496382006,
              -16.66880084323294,
              -0.000008569480292612092
            ],
            [
              -47.22972229479558,
              -16.668318377376714,
              -0.000008569480292612092
            ],
            [
              -47.23009371680263,
              -16.66751520485863,
              -0.000008568551956028231
            ],
            [
              -47.23040924687115,
              -16.667092610494272,
              -0.000008569480292612092
            ],
            [
              -47.230506661104585,
              -16.66687116025746,
              -0.000008567623618447576
            ],
            [
              -47.230639158363374,
              -16.666835281202893,
              -0.000008568551956028231
            ],
            [
              -47.23093472119626,
              -16.666807160497907,
              -0.000008568551956028231
            ],
            [
              -47.23096462710458,
              -16.666848023646757,
              -0.000008569480292612092
            ],
            [
              -47.2311200078405,
              -16.667060334018036,
              -0.000008568551956028231
            ],
            [
              -47.231307887566345,
              -16.66715625634834,
              -0.000008569480292612092
            ],
            [
              -47.231515105853475,
              -16.667127861227257,
              -0.000008567623618447576
            ],
            [
              -47.231524758623664,
              -16.666966633021413,
              -0.000008569480292612092
            ],
            [
              -47.231378325392484,
              -16.66657852549882,
              -0.000008566695281863718
            ],
            [
              -47.2314158647838,
              -16.666269900846093,
              -0.000008567623618447576
            ],
            [
              -47.23117873251812,
              -16.664948886299012,
              -0.000008567623618447576
            ],
            [
              -47.23124354788149,
              -16.664462863054915,
              -0.000008564838606702407
            ],
            [
              -47.23113368937334,
              -16.66408104702804,
              -0.000008565766944283062
            ],
            [
              -47.23100924246671,
              -16.66377125061117,
              -0.000008565766944283062
            ],
            [
              -47.23088893459726,
              -16.66341446384369,
              -0.000008564838606702407
            ],
            [
              -47.230738714984625,
              -16.663196280818017,
              -0.000008562981932537893
            ],
            [
              -47.230724309802554,
              -16.662926349331943,
              -0.000008563910270118546
            ],
            [
              -47.23083428046078,
              -16.66278443602995,
              -0.000008564838606702407
            ],
            [
              -47.231052962424656,
              -16.662786412976732,
              -0.000008564838606702407
            ],
            [
              -47.23140706006103,
              -16.66272380259501,
              -0.000008562981932537893
            ],
            [
              -47.231601803995034,
              -16.662635486307018,
              -0.000008564838606702407
            ],
            [
              -47.231841589657165,
              -16.662513397126393,
              -0.000008564838606702407
            ],
            [
              -47.23192972483315,
              -16.662090104417512,
              -0.000008562981932537893
            ],
            [
              -47.231899500214695,
              -16.661678586370083,
              -0.000008562981932537893
            ],
            [
              -47.23183884410213,
              -16.66115289674,
              -0.000008562053595954034
            ],
            [
              -47.23175855024499,
              -16.66090651118331,
              -0.000008562053595954034
            ],
            [
              -47.23157052105239,
              -16.66088768566296,
              -0.000008563910270118546
            ],
            [
              -47.231280545850666,
              -16.660826732697593,
              -0.000008561125258373377
            ],
            [
              -47.23104660736112,
              -16.6608136279039,
              -0.000008562053595954034
            ],
            [
              -47.230664856753606,
              -16.660828902591884,
              -0.000008562981932537893
            ],
            [
              -47.23043797710102,
              -16.660780124174167,
              -0.000008562981932537893
            ],
            [
              -47.23035281118962,
              -16.660710728202968,
              -0.000008562053595954034
            ],
            [
              -47.230355246629756,
              -16.66055479505338,
              -0.000008562981932537893
            ],
            [
              -47.23054551921916,
              -16.6604176847591,
              -0.000008561125258373377
            ],
            [
              -47.23045948069927,
              -16.66030275426373,
              -0.000008562053595954034
            ],
            [
              -47.230494653012556,
              -16.659991837476717,
              -0.000008562053595954034
            ],
            [
              -47.230598257220265,
              -16.659759011055712,
              -0.000008562053595954034
            ],
            [
              -47.23057607082882,
              -16.659542946124432,
              -0.000008561125258373377
            ],
            [
              -47.23041253631499,
              -16.65926140620873,
              -0.000008562053595954034
            ],
            [
              -47.23013796915342,
              -16.659043595316845,
              -0.000008561125258373377
            ],
            [
              -47.230069617056074,
              -16.658778802023072,
              -0.000008561125258373377
            ],
            [
              -47.230069617056074,
              -16.658778802023072,
              -0.000008561125258373377
            ],
            [
              -47.230426933987246,
              -16.6585578150685,
              -0.000008560196921789518
            ],
            [
              -47.2310619440438,
              -16.65828443965776,
              -0.000008560196921789518
            ],
            [
              -47.231361786116395,
              -16.65809492182019,
              -0.000008559268584208861
            ],
            [
              -47.231471415830356,
              -16.65776891481667,
              -0.000008559268584208861
            ],
            [
              -47.23153818898186,
              -16.65744723502786,
              -0.000008558340246628208
            ],
            [
              -47.231509434216264,
              -16.65725384328798,
              -0.000008559268584208861
            ],
            [
              -47.231408706180616,
              -16.65713706187014,
              -0.000008559268584208861
            ],
            [
              -47.23123804616603,
              -16.657113517910215,
              -0.000008559268584208861
            ],
            [
              -47.23108665796451,
              -16.657234472580296,
              -0.000008559268584208861
            ],
            [
              -47.230801578043895,
              -16.657283333494107,
              -0.000008559268584208861
            ],
            [
              -47.23023018071052,
              -16.657102287448204,
              -0.000008558340246628208
            ],
            [
              -47.22975989115287,
              -16.65676907076781,
              -0.000008558340246628208
            ],
            [
              -47.22933749512475,
              -16.6564562088243,
              -0.000008559268584208861
            ],
            [
              -47.229303242022695,
              -16.656204832191193,
              -0.000008556483572463692
            ],
            [
              -47.22935686940036,
              -16.65584977170958,
              -0.000008557411910044347
            ],
            [
              -47.22941137313012,
              -16.65555455997118,
              -0.000008557411910044347
            ],
            [
              -47.22945807520807,
              -16.655321805653003,
              -0.000008555555235879833
            ],
            [
              -47.229379837185775,
              -16.65492771997352,
              -0.000008556483572463692
            ],
            [
              -47.2294278368347,
              -16.6548064102669,
              -0.000008556483572463692
            ],
            [
              -47.229784839171714,
              -16.654648910510815,
              -0.000008556483572463692
            ],
            [
              -47.23030058795433,
              -16.654620259966844,
              -0.000008556483572463692
            ],
            [
              -47.230451400312916,
              -16.654532116835004,
              -0.000008555555235879833
            ],
            [
              -47.23050283923965,
              -16.65435562706337,
              -0.000008555555235879833
            ],
            [
              -47.23040463382654,
              -16.654243149589078,
              -0.000008555555235879833
            ],
            [
              -47.23022560349608,
              -16.654098683773352,
              -0.000008555555235879833
            ],
            [
              -47.22982219317879,
              -16.653885667198818,
              -0.000008556483572463692
            ],
            [
              -47.22938800863784,
              -16.653519248863873,
              -0.000008554626898299176
            ],
            [
              -47.22910995073437,
              -16.65348187282172,
              -0.000008552770224134662
            ],
            [
              -47.22905669478911,
              -16.653267412653715,
              -0.000008555555235879833
            ],
            [
              -47.22883952962229,
              -16.65318401668747,
              -0.000008555555235879833
            ],
            [
              -47.22878842721457,
              -16.65316538056266,
              -0.000008554626898299176
            ],
            [
              -47.228598439581674,
              -16.65309609535684,
              -0.000008554626898299176
            ],
            [
              -47.22806196269903,
              -16.65314184384046,
              -0.000008554626898299176
            ],
            [
              -47.227447891459974,
              -16.653200941655168,
              -0.000008554626898299176
            ],
            [
              -47.22635790705516,
              -16.65327413243253,
              -0.000008553698561715319
            ],
            [
              -47.22556435164876,
              -16.65330156211485,
              -0.000008554626898299176
            ],
            [
              -47.22525866361127,
              -16.653279280254274,
              -0.000008553698561715319
            ],
            [
              -47.224588194763896,
              -16.653423554183483,
              -0.000008554626898299176
            ],
            [
              -47.22376596552908,
              -16.65323168231658,
              -0.000008553698561715319
            ],
            [
              -47.223340849944634,
              -16.653329535240825,
              -0.000008553698561715319
            ],
            [
              -47.22259948706153,
              -16.65344403757811,
              -0.000008554626898299176
            ],
            [
              -47.22241199492771,
              -16.653482946510763,
              -0.000008556483572463692
            ],
            [
              -47.222032202452056,
              -16.653779185352832,
              -0.000008554626898299176
            ],
            [
              -47.22179440248101,
              -16.653838907145605,
              -0.000008554626898299176
            ],
            [
              -47.22114605846451,
              -16.653895114637827,
              -0.000008556483572463692
            ],
            [
              -47.22042816870788,
              -16.653986507311647,
              -0.000008555555235879833
            ],
            [
              -47.219909422654496,
              -16.65407684815751,
              -0.000008555555235879833
            ],
            [
              -47.219474253653345,
              -16.6540951705055,
              -0.000008555555235879833
            ],
            [
              -47.21892733808261,
              -16.65409712147173,
              -0.000008555555235879833
            ],
            [
              -47.218033940480495,
              -16.654084862477937,
              -0.000008556483572463692
            ],
            [
              -47.216981798739425,
              -16.654201533010568,
              -0.000008555555235879833
            ],
            [
              -47.21673991229841,
              -16.6540996819638,
              -0.000008557411910044347
            ],
            [
              -47.215621510575886,
              -16.654005441607385,
              -0.000008554626898299176
            ],
            [
              -47.215158431105806,
              -16.65399621815686,
              -0.000008555555235879833
            ],
            [
              -47.21402029907574,
              -16.65373632115561,
              -0.000008555555235879833
            ],
            [
              -47.21402029907574,
              -16.65373632115561,
              -0.000008555555235879833
            ],
            [
              -47.21298273257338,
              -16.653505772596493,
              -0.000008553698561715319
            ],
            [
              -47.21253403957576,
              -16.65347882030156,
              -0.000008554626898299176
            ],
            [
              -47.20216134091993,
              -16.652857068609233,
              -0.000008552770224134662
            ],
            [
              -47.20201520617974,
              -16.652848302614693,
              -0.000008555555235879833
            ],
            [
              -47.189413313307455,
              -16.652092206018043,
              -0.000008552770224134662
            ],
            [
              -47.18764781298921,
              -16.651986215994704,
              -0.000008555555235879833
            ],
            [
              -47.187179100043636,
              -16.651958074712404,
              -0.000008553698561715319
            ],
            [
              -47.187169280171645,
              -16.651957485120757,
              -0.000008552770224134662
            ],
            [
              -47.186869282042835,
              -16.652678108316493,
              -0.000008554626898299176
            ],
            [
              -47.18659497189765,
              -16.653076578798593,
              -0.000008553698561715319
            ],
            [
              -47.186391532892515,
              -16.653422000291112,
              -0.000008554626898299176
            ],
            [
              -47.18594754869184,
              -16.653917771567443,
              -0.000008555555235879833
            ],
            [
              -47.185749435223386,
              -16.65436783621824,
              -0.000008555555235879833
            ],
            [
              -47.18546756393698,
              -16.654640110232027,
              -0.000008556483572463692
            ],
            [
              -47.18517699342482,
              -16.655013275972273,
              -0.000008556483572463692
            ],
            [
              -47.18478447998746,
              -16.655269411677686,
              -0.000008557411910044347
            ],
            [
              -47.1842957849297,
              -16.65571521603775,
              -0.000008558340246628208
            ],
            [
              -47.18362148274139,
              -16.656337054484084,
              -0.000008557411910044347
            ],
            [
              -47.18315677496503,
              -16.656676816824334,
              -0.000008558340246628208
            ],
            [
              -47.18285438802968,
              -16.656980618338373,
              -0.000008558340246628208
            ],
            [
              -47.1827117357696,
              -16.657290581992427,
              -0.000008559268584208861
            ],
            [
              -47.18258758966181,
              -16.657490143069683,
              -0.000008559268584208861
            ],
            [
              -47.18237712841767,
              -16.6574966163241,
              -0.000008559268584208861
            ],
            [
              -47.18200603147335,
              -16.657454815126695,
              -0.000008559268584208861
            ],
            [
              -47.18192569152143,
              -16.657492694780494,
              -0.000008559268584208861
            ],
            [
              -47.18192569152143,
              -16.657492694780494,
              -0.000008559268584208861
            ],
            [
              -47.181805575336796,
              -16.657549328532316,
              -0.000008558340246628208
            ],
            [
              -47.18164378657491,
              -16.65749606019094,
              -0.000008559268584208861
            ],
            [
              -47.18170262522358,
              -16.65795993427282,
              -0.000008560196921789518
            ],
            [
              -47.182211277849376,
              -16.658845470188457,
              -0.000008562053595954034
            ],
            [
              -47.182628536666186,
              -16.659391941365445,
              -0.000008561125258373377
            ],
            [
              -47.18297637596345,
              -16.659870374388845,
              -0.000008561125258373377
            ],
            [
              -47.182808003567686,
              -16.660262576204907,
              -0.000008562053595954034
            ],
            [
              -47.18312225309472,
              -16.66050731072194,
              -0.000008562981932537893
            ],
            [
              -47.183706930886046,
              -16.660607267627736,
              -0.000008562981932537893
            ],
            [
              -47.18384020434098,
              -16.66076614552827,
              -0.000008562053595954034
            ],
            [
              -47.18388055552691,
              -16.661128605371747,
              -0.000008562981932537893
            ],
            [
              -47.184193059821155,
              -16.6611402122689,
              -0.000008562981932537893
            ],
            [
              -47.184448562277225,
              -16.661206787169014,
              -0.000008561125258373377
            ],
            [
              -47.18481333552825,
              -16.66146895594013,
              -0.000008562981932537893
            ],
            [
              -47.1847566331831,
              -16.661711135511652,
              -0.000008563910270118546
            ],
            [
              -47.1845867403282,
              -16.661990228626752,
              -0.000008561125258373377
            ],
            [
              -47.184885388138184,
              -16.662545032170883,
              -0.000008564838606702407
            ],
            [
              -47.185171380644476,
              -16.663239441901098,
              -0.000008564838606702407
            ],
            [
              -47.18573126890692,
              -16.663823495330085,
              -0.000008564838606702407
            ],
            [
              -47.18626129471426,
              -16.66477026968126,
              -0.000008567623618447576
            ],
            [
              -47.18620255776574,
              -16.665552121237827,
              -0.000008566695281863718
            ],
            [
              -47.18605737486746,
              -16.666122481035753,
              -0.000008566695281863718
            ],
            [
              -47.18626980782307,
              -16.66661935720996,
              -0.000008567623618447576
            ],
            [
              -47.18652202742123,
              -16.667481602655883,
              -0.000008569480292612092
            ],
            [
              -47.18680318220936,
              -16.667888395722972,
              -0.000008569480292612092
            ],
            [
              -47.186985850493954,
              -16.668504922137238,
              -0.000008570408630192747
            ],
            [
              -47.18719952978216,
              -16.66874260862985,
              -0.000008571336966776608
            ],
            [
              -47.187756748184256,
              -16.668931248844647,
              -0.000008570408630192747
            ],
            [
              -47.188349965198825,
              -16.668938692705307,
              -0.000008569480292612092
            ],
            [
              -47.188875841872175,
              -16.669351602728323,
              -0.000008572265304357261
            ],
            [
              -47.18901462897327,
              -16.669602477802478,
              -0.000008571336966776608
            ],
            [
              -47.18929672955596,
              -16.669568888631208,
              -0.000008571336966776608
            ],
            [
              -47.18990952299873,
              -16.669850929670865,
              -0.000008570408630192747
            ],
            [
              -47.190595176816544,
              -16.670087599563917,
              -0.000008570408630192747
            ],
            [
              -47.19121825064349,
              -16.670747991271405,
              -0.000008574121978521777
            ],
            [
              -47.19141085153041,
              -16.67108852733835,
              -0.000008572265304357261
            ],
            [
              -47.19144635028624,
              -16.671379824543607,
              -0.000008573193641937918
            ],
            [
              -47.19155803097385,
              -16.671735340325437,
              -0.000008574121978521777
            ],
            [
              -47.19154209183023,
              -16.672387119943245,
              -0.000008574121978521777
            ],
            [
              -47.19169603419749,
              -16.672782080689714,
              -0.000008575050316102432
            ],
            [
              -47.19185110967953,
              -16.673131311045598,
              -0.000008574121978521777
            ],
            [
              -47.19190695594102,
              -16.67339384617036,
              -0.000008575050316102432
            ],
            [
              -47.19216306111247,
              -16.67357922526074,
              -0.000008575050316102432
            ],
            [
              -47.192196333857055,
              -16.673876194730582,
              -0.000008575050316102432
            ],
            [
              -47.19263097483076,
              -16.674155682909817,
              -0.000008575050316102432
            ],
            [
              -47.192835797775956,
              -16.674595607818397,
              -0.000008575978652686291
            ],
            [
              -47.19323470066456,
              -16.674913348820645,
              -0.000008576906990266946
            ],
            [
              -47.193352136310864,
              -16.675200605757116,
              -0.000008575978652686291
            ],
            [
              -47.19346532677895,
              -16.675403749159457,
              -0.000008576906990266946
            ],
            [
              -47.19404222255156,
              -16.67526454052856,
              -0.000008575978652686291
            ],
            [
              -47.19382450375292,
              -16.67619097605988,
              -0.000008577835326850807
            ],
            [
              -47.19390750668799,
              -16.676816091035786,
              -0.000008577835326850807
            ],
            [
              -47.19452868451526,
              -16.677108894272436,
              -0.000008578763664431462
            ],
            [
              -47.194826772665806,
              -16.67732422489357,
              -0.000008578763664431462
            ],
            [
              -47.195075500759174,
              -16.67746165596577,
              -0.000008578763664431462
            ],
            [
              -47.195075500759174,
              -16.67746165596577,
              -0.000008578763664431462
            ],
            [
              -47.19534297028093,
              -16.678131168029804,
              -0.000008580620338595976
            ],
            [
              -47.19537044206339,
              -16.67832745601083,
              -0.000008579692002012117
            ],
            [
              -47.19588387221063,
              -16.678117399194395,
              -0.000008578763664431462
            ],
            [
              -47.19590182679866,
              -16.67834632102786,
              -0.000008578763664431462
            ],
            [
              -47.195502885118,
              -16.678815904095146,
              -0.000008580620338595976
            ],
            [
              -47.195528874291085,
              -16.678947746835625,
              -0.000008580620338595976
            ],
            [
              -47.19601104901665,
              -16.67903584064748,
              -0.000008580620338595976
            ],
            [
              -47.19547051188994,
              -16.679762658213285,
              -0.00000858154867617663
            ],
            [
              -47.1954722300498,
              -16.680520494755275,
              -0.00000858154867617663
            ],
            [
              -47.195923075565645,
              -16.680701917872067,
              -0.000008582477012760492
            ],
            [
              -47.19629769833756,
              -16.680799368500352,
              -0.000008582477012760492
            ],
            [
              -47.196665510269895,
              -16.68124973775609,
              -0.000008582477012760492
            ],
            [
              -47.19718211507529,
              -16.681724299547202,
              -0.00000858154867617663
            ],
            [
              -47.19698654433358,
              -16.682004207524116,
              -0.000008583405350341147
            ],
            [
              -47.196936040343644,
              -16.68235189096589,
              -0.000008583405350341147
            ],
            [
              -47.19736798974566,
              -16.682849817192842,
              -0.000008585262024505661
            ],
            [
              -47.197479952741276,
              -16.683155414474424,
              -0.000008585262024505661
            ],
            [
              -47.1973987152499,
              -16.683413885306955,
              -0.000008585262024505661
            ],
            [
              -47.19746616521468,
              -16.683545832788003,
              -0.000008586190362086317
            ],
            [
              -47.19783271732206,
              -16.683411486655718,
              -0.000008585262024505661
            ],
            [
              -47.19817818626689,
              -16.683532292132387,
              -0.000008586190362086317
            ],
            [
              -47.19831606312363,
              -16.683715062686783,
              -0.000008586190362086317
            ],
            [
              -47.198290242979056,
              -16.68401945637836,
              -0.000008585262024505661
            ],
            [
              -47.19836581293248,
              -16.68410506405023,
              -0.000008587118698670177
            ],
            [
              -47.198462360791666,
              -16.684068594562607,
              -0.000008586190362086317
            ],
            [
              -47.198517692842756,
              -16.683928750029505,
              -0.000008585262024505661
            ],
            [
              -47.19859316745112,
              -16.683830976576893,
              -0.000008586190362086317
            ],
            [
              -47.19881116885102,
              -16.683954767434827,
              -0.000008584333686925008
            ],
            [
              -47.19874386332805,
              -16.684180834413873,
              -0.000008586190362086317
            ],
            [
              -47.19870103085708,
              -16.684422924077914,
              -0.000008585262024505661
            ],
            [
              -47.19873231355865,
              -16.68446199474297,
              -0.000008585262024505661
            ],
            [
              -47.19893171739989,
              -16.684473087880114,
              -0.000008585262024505661
            ],
            [
              -47.19914025211625,
              -16.68466113119696,
              -0.000008587118698670177
            ],
            [
              -47.199363225446575,
              -16.684779856772824,
              -0.000008586190362086317
            ],
            [
              -47.19951563528559,
              -16.6851573328918,
              -0.000008587118698670177
            ],
            [
              -47.19976813478962,
              -16.685839366036497,
              -0.000008586190362086317
            ],
            [
              -47.199993165361946,
              -16.686047599994733,
              -0.000008588047036250832
            ],
            [
              -47.200277234173484,
              -16.686095612136892,
              -0.000008588047036250832
            ],
            [
              -47.2007580385544,
              -16.6860498031655,
              -0.000008587118698670177
            ],
            [
              -47.20121429947119,
              -16.686083730000576,
              -0.000008588047036250832
            ],
            [
              -47.201527020995684,
              -16.686281855068156,
              -0.000008588975372834691
            ],
            [
              -47.20202090566812,
              -16.686854762768647,
              -0.000008588975372834691
            ],
            [
              -47.20211750495571,
              -16.687272265000477,
              -0.000008587118698670177
            ],
            [
              -47.20256265803732,
              -16.687704482578162,
              -0.000008589903710415346
            ],
            [
              -47.20267224441238,
              -16.688109046215928,
              -0.000008589903710415346
            ],
            [
              -47.202867769497345,
              -16.688483137508292,
              -0.000008589903710415346
            ],
            [
              -47.20321318931417,
              -16.6884629660252,
              -0.000008588975372834691
            ],
            [
              -47.20352978185042,
              -16.68854551820875,
              -0.000008590832046999207
            ],
            [
              -47.20377287770668,
              -16.688775800349234,
              -0.000008588975372834691
            ],
            [
              -47.20396129912143,
              -16.688985479937003,
              -0.000008589903710415346
            ],
            [
              -47.20400148456946,
              -16.689479548506913,
              -0.000008590832046999207
            ],
            [
              -47.204157269832024,
              -16.689739717217684,
              -0.000008590832046999207
            ],
            [
              -47.20469864785747,
              -16.690382969535943,
              -0.000008592688722160515
            ],
            [
              -47.20516653574549,
              -16.69093358655401,
              -0.000008592688722160515
            ],
            [
              -47.20561877559061,
              -16.69088124000058,
              -0.000008593617058744376
            ],
            [
              -47.20598089188809,
              -16.691143786399387,
              -0.000008592688722160515
            ],
            [
              -47.20650839770525,
              -16.691260240359597,
              -0.000008591760384579862
            ],
            [
              -47.206872508917684,
              -16.691307692659837,
              -0.000008593617058744376
            ],
            [
              -47.207118640914416,
              -16.691687953514364,
              -0.00000859454539632503
            ],
            [
              -47.2076168836507,
              -16.69175342864619,
              -0.00000859454539632503
            ],
            [
              -47.20788928538002,
              -16.69191162428111,
              -0.00000859454539632503
            ],
            [
              -47.208030697588015,
              -16.692254263836293,
              -0.000008593617058744376
            ],
            [
              -47.2082252427507,
              -16.692349187431603,
              -0.000008592688722160515
            ],
            [
              -47.20872143403062,
              -16.692386827374875,
              -0.000008593617058744376
            ],
            [
              -47.209204071614636,
              -16.692286203379066,
              -0.00000859454539632503
            ],
            [
              -47.209421133611954,
              -16.692394140467876,
              -0.00000859454539632503
            ],
            [
              -47.20952615469088,
              -16.69254880592849,
              -0.000008595473732908892
            ],
            [
              -47.209557428232586,
              -16.692876312896615,
              -0.00000859454539632503
            ],
            [
              -47.21004488667717,
              -16.693461109870753,
              -0.000008595473732908892
            ],
            [
              -47.21036934139596,
              -16.693606996886984,
              -0.000008595473732908892
            ],
            [
              -47.2106997928945,
              -16.69377920018956,
              -0.00000859454539632503
            ],
            [
              -47.21089703050558,
              -16.693804715775684,
              -0.00000859454539632503
            ],
            [
              -47.21124462192137,
              -16.693665644424225,
              -0.00000859454539632503
            ],
            [
              -47.211471215153324,
              -16.69366183582561,
              -0.00000859454539632503
            ],
            [
              -47.211734829311865,
              -16.693678144158216,
              -0.000008596402070489547
            ],
            [
              -47.21205898324649,
              -16.69366229264912,
              -0.00000859454539632503
            ],
            [
              -47.21237289569666,
              -16.69367010955591,
              -0.000008593617058744376
            ],
            [
              -47.212816622102196,
              -16.69353597338741,
              -0.000008596402070489547
            ],
            [
              -47.213236100781614,
              -16.693529723121497,
              -0.000008596402070489547
            ],
            [
              -47.21351849350344,
              -16.693667928562707,
              -0.000008595473732908892
            ],
            [
              -47.21382865743033,
              -16.693981475378962,
              -0.000008596402070489547
            ],
            [
              -47.21405008328685,
              -16.694187926618,
              -0.000008596402070489547
            ],
            [
              -47.21442060153777,
              -16.694147332211216,
              -0.000008595473732908892
            ],
            [
              -47.214698844534496,
              -16.694247123708642,
              -0.000008597330408070201
            ],
            [
              -47.21478049154962,
              -16.694748405924962,
              -0.000008596402070489547
            ],
            [
              -47.215054286558995,
              -16.694909303997274,
              -0.000008597330408070201
            ],
            [
              -47.21545332701248,
              -16.69488857976455,
              -0.000008596402070489547
            ],
            [
              -47.21585903948204,
              -16.694882734393254,
              -0.000008597330408070201
            ],
            [
              -47.216151099776255,
              -16.694923362480615,
              -0.000008597330408070201
            ],
            [
              -47.216490864390664,
              -16.69520930853622,
              -0.000008596402070489547
            ],
            [
              -47.216876101290495,
              -16.695464704808256,
              -0.000008596402070489547
            ],
            [
              -47.21714667668812,
              -16.69593940872333,
              -0.000008596402070489547
            ],
            [
              -47.21732954704254,
              -16.69640384481733,
              -0.000008597330408070201
            ],
            [
              -47.217461711888916,
              -16.696805192754393,
              -0.00000859825874465406
            ],
            [
              -47.21722200884676,
              -16.69720980218528,
              -0.000008599187082234715
            ],
            [
              -47.217253284405615,
              -16.69781207860209,
              -0.000008599187082234715
            ],
            [
              -47.21740195554912,
              -16.698184904075475,
              -0.000008599187082234715
            ],
            [
              -47.217623908638586,
              -16.698479382235877,
              -0.000008599187082234715
            ],
            [
              -47.2178636405543,
              -16.698842017943896,
              -0.000008599187082234715
            ],
            [
              -47.218459177849525,
              -16.699531600039286,
              -0.000008601972092983091
            ],
            [
              -47.218459177849525,
              -16.699531600039286,
              -0.000008601972092983091
            ],
            [
              -47.21895468880996,
              -16.69981756954567,
              -0.000008601972092983091
            ],
            [
              -47.21912949981669,
              -16.699918455508627,
              -0.000008601972092983091
            ]
          ]
        ]
      }
    }
  ]
}