{
  "type": "FeatureCollection",
  "features": [
    {
      "type": "Feature",
      "properties": {
        "goldPreset": "gold_catingueiro",
        "source": "mca_gold_synthetic",
        "targetAreaHa": 2073.8318
      },
      "geometry": {
        "type": "Polygon",
        "coordinates": [
          [
            [
              -46.08391791036928,
              -16.36799863158616
            ],
            [
              -46.08392523342449,
              -16.367431580861965
            ],
            [
              -46.083947058090324,
              -16.36686487335467
            ],
            [
              -46.083983371094305,
              -16.366298850423163
            ],
            [
              -46.08403415043734,
              -16.365733853010997
            ],
            [
              -46.08409936540729,
              -16.365170221441048
            ],
            [
              -46.084178976597734,
              -16.36460829521053
            ],
            [
              -46.084272935932034,
              -16.364048412786556
            ],
            [
              -46.08438118669259,
              -16.363490911402263
            ],
            [
              -46.084503663555274,
              -16.36293612685374
            ],
            [
              -46.084640292629054,
              -16.362384393297816
            ],
            [
              -46.08479099150084,
              -16.361836043050815
            ],
            [
              -46.08495566928531,
              -16.36129140638847
            ],
            [
              -46.08513422667999,
              -16.360750811347028
            ],
            [
              -46.08532655602532,
              -16.360214583525757
            ],
            [
              -46.0855325413697,
              -16.35968304589088
            ],
            [
              -46.08575205853963,
              -16.359156518581113
            ],
            [
              -46.085984975214735,
              -16.35863531871497
            ],
            [
              -46.086231151007645,
              -16.358119760199784
            ],
            [
              -46.086490437548804,
              -16.357610153542765
            ],
            [
              -46.08676267857604,
              -16.357106805664063
            ],
            [
              -46.08704771002886,
              -16.356610019712004
            ],
            [
              -46.087345360147474,
              -16.356120094880602
            ],
            [
              -46.0876554495764,
              -16.35563732622946
            ],
            [
              -46.087977791472646,
              -16.355162004506184
            ],
            [
              -46.08831219161841,
              -16.35469441597134
            ],
            [
              -46.08865844853817,
              -16.354234842226184
            ],
            [
              -46.0890163536202,
              -16.353783560043166
            ],
            [
              -46.08938569124226,
              -16.35334084119935
            ],
            [
              -46.08976623890161,
              -16.352906952312843
            ],
            [
              -46.09015776734909,
              -16.352482154682335
            ],
            [
              -46.09056004072723,
              -16.352066704129864
            ],
            [
              -46.09097281671243,
              -16.351660850846837
            ],
            [
              -46.091395846660866,
              -16.351264839243484
            ],
            [
              -46.091828875758324,
              -16.350878907801793
            ],
            [
              -46.092271643173675,
              -16.350503288931964
            ],
            [
              -46.09272388221595,
              -16.35013820883261
            ],
            [
              -46.093185320494975,
              -16.349783887354604
            ],
            [
              -46.09365568008534,
              -16.349440537868823
            ],
            [
              -46.09413467769382,
              -16.349108367137745
            ],
            [
              -46.094622024829896,
              -16.348787575191047
            ],
            [
              -46.09511742797941,
              -16.34847835520527
            ],
            [
              -46.09562058878131,
              -16.34818089338756
            ],
            [
              -46.09613120420723,
              -16.347895368863682
            ],
            [
              -46.09664896674387,
              -16.347621953570197
            ],
            [
              -46.097173564578085,
              -16.347360812151074
            ],
            [
              -46.09770468178457,
              -16.347112101858592
            ],
            [
              -46.09824199851595,
              -16.346875972458772
            ],
            [
              -46.09878519119529,
              -16.34665256614126
            ],
            [
              -46.099333932710785,
              -16.346442017433784
            ],
            [
              -46.09988789261259,
              -16.346244453121248
            ],
            [
              -46.100446737311685,
              -16.346059992169423
            ],
            [
              -46.10101013028053,
              -16.34588874565344
            ],
            [
              -46.10157773225557,
              -16.345730816690892
            ],
            [
              -46.10214920144136,
              -16.34558630037989
            ],
            [
              -46.10272419371616,
              -16.34545528374179
            ],
            [
              -46.103302362838974,
              -16.345337845668883
            ],
            [
              -46.103883360657846,
              -16.345234056876922
            ],
            [
              -46.10446683731927,
              -16.345143979862595
            ],
            [
              -46.10505244147869,
              -16.345067668865937
            ],
            [
              -46.1056398205118,
              -16.345005169837677
            ],
            [
              -46.10622862072668,
              -16.344956520411618
            ],
            [
              -46.106818487576575,
              -16.344921749882005
            ],
            [
              -46.10740906587312,
              -16.34490087918589
            ],
            [
              -46.108,
              -16.344893920890538
            ],
            [
              -46.10859093412688,
              -16.34490087918589
            ],
            [
              -46.10918151242342,
              -16.344921749882005
            ],
            [
              -46.10977137927332,
              -16.344956520411618
            ],
            [
              -46.110360179488204,
              -16.345005169837677
            ],
            [
              -46.11094755852131,
              -16.345067668865937
            ],
            [
              -46.11153316268073,
              -16.345143979862595
            ],
            [
              -46.112116639342155,
              -16.345234056876922
            ],
            [
              -46.11269763716103,
              -16.345337845668883
            ],
            [
              -46.11327580628384,
              -16.34545528374179
            ],
            [
              -46.11385079855864,
              -16.34558630037989
            ],
            [
              -46.11442226774443,
              -16.345730816690892
            ],
            [
              -46.11498986971947,
              -16.34588874565344
            ],
            [
              -46.115553262688316,
              -16.346059992169423
            ],
            [
              -46.1161121073874,
              -16.346244453121248
            ],
            [
              -46.11666606728921,
              -16.346442017433784
            ],
            [
              -46.11721480880471,
              -16.34665256614126
            ],
            [
              -46.11775800148405,
              -16.346875972458772
            ],
            [
              -46.118295318215424,
              -16.347112101858592
            ],
            [
              -46.118826435421916,
              -16.347360812151074
            ],
            [
              -46.11935103325613,
              -16.347621953570197
            ],
            [
              -46.11986879579277,
              -16.347895368863682
            ],
            [
              -46.12037941121869,
              -16.34818089338756
            ],
            [
              -46.12088257202059,
              -16.34847835520527
            ],
            [
              -46.121377975170105,
              -16.348787575191047
            ],
            [
              -46.12186532230617,
              -16.349108367137745
            ],
            [
              -46.12234431991465,
              -16.349440537868823
            ],
            [
              -46.122814679505026,
              -16.349783887354604
            ],
            [
              -46.123276117784044,
              -16.35013820883261
            ],
            [
              -46.12372835682633,
              -16.350503288931964
            ],
            [
              -46.12417112424168,
              -16.350878907801793
            ],
            [
              -46.124604153339135,
              -16.351264839243484
            ],
            [
              -46.12502718328757,
              -16.351660850846837
            ],
            [
              -46.12543995927277,
              -16.352066704129864
            ],
            [
              -46.12584223265091,
              -16.352482154682335
            ],
            [
              -46.12623376109838,
              -16.352906952312843
            ],
            [
              -46.12661430875774,
              -16.35334084119935
            ],
            [
              -46.1269836463798,
              -16.353783560043166
            ],
            [
              -46.12734155146183,
              -16.354234842226184
            ],
            [
              -46.127687808381594,
              -16.35469441597134
            ],
            [
              -46.128022208527355,
              -16.355162004506184
            ],
            [
              -46.1283445504236,
              -16.35563732622946
            ],
            [
              -46.12865463985252,
              -16.356120094880602
            ],
            [
              -46.12895228997114,
              -16.356610019712004
            ],
            [
              -46.12923732142396,
              -16.357106805664063
            ],
            [
              -46.1295095624512,
              -16.357610153542765
            ],
            [
              -46.129768848992356,
              -16.358119760199784
            ],
            [
              -46.130015024785266,
              -16.35863531871497
            ],
            [
              -46.13024794146037,
              -16.359156518581113
            ],
            [
              -46.1304674586303,
              -16.35968304589088
            ],
            [
              -46.13067344397468,
              -16.360214583525757
            ],
            [
              -46.130865773320004,
              -16.360750811347028
            ],
            [
              -46.131044330714694,
              -16.36129140638847
            ],
            [
              -46.13120900849916,
              -16.361836043050815
            ],
            [
              -46.13135970737094,
              -16.362384393297816
            ],
            [
              -46.13149633644473,
              -16.36293612685374
            ],
            [
              -46.13161881330741,
              -16.363490911402263
            ],
            [
              -46.13172706406797,
              -16.364048412786556
            ],
            [
              -46.13182102340227,
              -16.36460829521053
            ],
            [
              -46.13190063459271,
              -16.365170221441048
            ],
            [
              -46.131965849562654,
              -16.365733853010997
            ],
            [
              -46.132016628905696,
              -16.366298850423163
            ],
            [
              -46.13205294190968,
              -16.36686487335467
            ],
            [
              -46.132074766575506,
              -16.367431580861965
            ],
            [
              -46.132082089630714,
              -16.36799863158616
            ],
            [
              -46.132074906537724,
              -16.368565683958675
            ],
            [
              -46.13205322149693,
              -16.36913239640694
            ],
            [
              -46.13201704744444,
              -16.369698427560174
            ],
            [
              -46.1319664060446,
              -16.37026343645501
            ],
            [
              -46.13190132767723,
              -16.370827082740917
            ],
            [
              -46.13182185141966,
              -16.371389026885222
            ],
            [
              -46.13172802502346,
              -16.371948930377666
            ],
            [
              -46.131619904886,
              -16.37250645593435
            ],
            [
              -46.1314975560167,
              -16.373061267700947
            ],
            [
              -46.13136105199824,
              -16.373613031455065
            ],
            [
              -46.131210474942456,
              -16.374161414807624
            ],
            [
              -46.13104591544119,
              -16.37470608740314
            ],
            [
              -46.13086747251197,
              -16.375246721118796
            ],
            [
              -46.13067525353861,
              -16.375782990262163
            ],
            [
              -46.130469374206804,
              -16.376314571767466
            ],
            [
              -46.130249958434646,
              -16.37684114539029
            ],
            [
              -46.13001713829825,
              -16.377362393900572
            ],
            [
              -46.12977105395242,
              -16.37787800327377
            ],
            [
              -46.12951185354639,
              -16.378387662880165
            ],
            [
              -46.12923969313484,
              -16.378891065672036
            ],
            [
              -46.12895473658404,
              -16.37938790836878
            ],
            [
              -46.12865715547335,
              -16.37987789163967
            ],
            [
              -46.128347128992,
              -16.380360720284312
            ],
            [
              -46.12802484383133,
              -16.38083610341059
            ],
            [
              -46.12769049407247,
              -16.381303754610002
            ],
            [
              -46.12734428106953,
              -16.38176339213032
            ],
            [
              -46.126986413328474,
              -16.382214739045466
            ],
            [
              -46.126617106381566,
              -16.382657523422424
            ],
            [
              -46.12623658265764,
              -16.383091478485213
            ],
            [
              -46.125845071348216,
              -16.38351634277572
            ],
            [
              -46.12544280826944,
              -16.38393186031132
            ],
            [
              -46.12503003572014,
              -16.38433778073923
            ],
            [
              -46.12460700233584,
              -16.38473385948747
            ],
            [
              -46.12417396293903,
              -16.385119857912287
            ],
            [
              -46.12373117838566,
              -16.385495543442115
            ],
            [
              -46.12327891540798,
              -16.385860689717756
            ],
            [
              -46.12281744645383,
              -16.386215076728906
            ],
            [
              -46.12234704952252,
              -16.386558490946822
            ],
            [
              -46.12186800799722,
              -16.38689072545307
            ],
            [
              -46.12138061047427,
              -16.38721158006434
            ],
            [
              -46.1208851505892,
              -16.387520861453122
            ],
            [
              -46.12038192683974,
              -16.387818383264342
            ],
            [
              -46.119871242405914,
              -16.38810396622772
            ],
            [
              -46.119353404967256,
              -16.38837743826589
            ],
            [
              -46.118828726517364,
              -16.3886386345982
            ],
            [
              -46.11829752317576,
              -16.38888739784006
            ],
            [
              -46.1177601149973,
              -16.389123578097905
            ],
            [
              -46.11721682577926,
              -16.38934703305956
            ],
            [
              -46.11666798286599,
              -16.389557628080112
            ],
            [
              -46.116113916951605,
              -16.38975523626308
            ],
            [
              -46.11555496188054,
              -16.389939738537
            ],
            [
              -46.114991454446226,
              -16.39011102372722
            ],
            [
              -46.11442373418796,
              -16.390268988622942
            ],
            [
              -46.11385214318616,
              -16.390413538039514
            ],
            [
              -46.11327702585602,
              -16.390544584875816
            ],
            [
              -46.11269872873981,
              -16.390662050166803
            ],
            [
              -46.112117600297836,
              -16.390765863131158
            ],
            [
              -46.11153399069828,
              -16.390855961213955
            ],
            [
              -46.110948251605954,
              -16.39093229012441
            ],
            [
              -46.11036073597025,
              -16.390994803868633
            ],
            [
              -46.109771797812144,
              -16.39104346477737
            ],
            [
              -46.10918179201074,
              -16.39107824352871
            ],
            [
              -46.10859107408913,
              -16.391099119165798
            ],
            [
              -46.108,
              -16.39110607910946
            ],
            [
              -46.107408925910875,
              -16.391099119165798
            ],
            [
              -46.106818207989264,
              -16.39107824352871
            ],
            [
              -46.10622820218786,
              -16.39104346477737
            ],
            [
              -46.105639264029755,
              -16.390994803868633
            ],
            [
              -46.10505174839405,
              -16.39093229012441
            ],
            [
              -46.104466009301724,
              -16.390855961213955
            ],
            [
              -46.103882399702165,
              -16.390765863131158
            ],
            [
              -46.10330127126019,
              -16.390662050166803
            ],
            [
              -46.10272297414398,
              -16.390544584875816
            ],
            [
              -46.10214785681384,
              -16.390413538039514
            ],
            [
              -46.101576265812035,
              -16.390268988622942
            ],
            [
              -46.101008545553775,
              -16.39011102372722
            ],
            [
              -46.10044503811945,
              -16.389939738537
            ],
            [
              -46.099886083048396,
              -16.38975523626308
            ],
            [
              -46.09933201713401,
              -16.389557628080112
            ],
            [
              -46.09878317422074,
              -16.38934703305956
            ],
            [
              -46.0982398850027,
              -16.389123578097905
            ],
            [
              -46.09770247682424,
              -16.38888739784006
            ],
            [
              -46.09717127348263,
              -16.3886386345982
            ],
            [
              -46.09664659503274,
              -16.38837743826589
            ],
            [
              -46.09612875759409,
              -16.38810396622772
            ],
            [
              -46.09561807316026,
              -16.387818383264342
            ],
            [
              -46.0951148494108,
              -16.387520861453122
            ],
            [
              -46.094619389525725,
              -16.38721158006434
            ],
            [
              -46.09413199200278,
              -16.386890725453075
            ],
            [
              -46.093652950477484,
              -16.386558490946822
            ],
            [
              -46.09318255354617,
              -16.386215076728906
            ],
            [
              -46.09272108459202,
              -16.385860689717756
            ],
            [
              -46.09226882161434,
              -16.385495543442115
            ],
            [
              -46.09182603706097,
              -16.385119857912287
            ],
            [
              -46.09139299766416,
              -16.38473385948747
            ],
            [
              -46.09096996427986,
              -16.38433778073923
            ],
            [
              -46.090557191730554,
              -16.38393186031132
            ],
            [
              -46.090154928651785,
              -16.38351634277572
            ],
            [
              -46.08976341734236,
              -16.383091478485213
            ],
            [
              -46.089382893618435,
              -16.382657523422424
            ],
            [
              -46.08901358667152,
              -16.382214739045466
            ],
            [
              -46.08865571893046,
              -16.38176339213032
            ],
            [
              -46.08830950592753,
              -16.381303754610002
            ],
            [
              -46.087975156168675,
              -16.38083610341059
            ],
            [
              -46.087652871008004,
              -16.380360720284312
            ],
            [
              -46.087342844526646,
              -16.37987789163967
            ],
            [
              -46.08704526341596,
              -16.37938790836878
            ],
            [
              -46.08676030686516,
              -16.378891065672036
            ],
            [
              -46.08648814645361,
              -16.378387662880165
            ],
            [
              -46.086228946047584,
              -16.37787800327377
            ],
            [
              -46.08598286170175,
              -16.377362393900572
            ],
            [
              -46.085750041565355,
              -16.37684114539029
            ],
            [
              -46.0855306257932,
              -16.376314571767466
            ],
            [
              -46.08532474646139,
              -16.375782990262163
            ],
            [
              -46.08513252748803,
              -16.375246721118796
            ],
            [
              -46.0849540845588,
              -16.37470608740314
            ],
            [
              -46.084789525057545,
              -16.374161414807624
            ],
            [
              -46.08463894800176,
              -16.373613031455065
            ],
            [
              -46.084502443983304,
              -16.373061267700947
            ],
            [
              -46.084380095114,
              -16.37250645593435
            ],
            [
              -46.08427197497653,
              -16.371948930377666
            ],
            [
              -46.08417814858034,
              -16.371389026885222
            ],
            [
              -46.08409867232277,
              -16.370827082740917
            ],
            [
              -46.084033593955404,
              -16.37026343645501
            ],
            [
              -46.08398295255556,
              -16.369698427560174
            ],
            [
              -46.08394677850307,
              -16.36913239640694
            ],
            [
              -46.08392509346227,
              -16.368565683958675
            ],
            [
              -46.08391791036928,
              -16.36799863158616
            ]
          ]
        ]
      }
    }
  ]
}