{
  "type": "FeatureCollection",
  "features": [
    {
      "type": "Feature",
      "properties": {
        "source": "mca_gold_synthetic",
        "targetAreaHa": 1747.9104
      },
      "geometry": {
        "type": "Polygon",
        "coordinates": [
          [
            [
              -46.076810951784985,
              -16.352
            ],
            [
              -46.0769129828437,
              -16.34950773210519
            ],
            [
              -46.07721809340496,
              -16.347039466112623
            ],
            [
              -46.07772334508728,
              -16.34461897277309
            ],
            [
              -46.07842387204076,
              -16.342269562760638
            ],
            [
              -46.07931292780788,
              -16.340013862177994
            ],
            [
              -46.0803819502956,
              -16.33787359465487
            ],
            [
              -46.08162064423299,
              -16.335869372137495
            ],
            [
              -46.083017080320275,
              -16.334020496384333
            ],
            [
              -46.084557810114575,
              -16.332344773079587
            ],
            [
              -46.08622799554572,
              -16.330858340354727
            ],
            [
              -46.08801155181499,
              -16.329575513369456
            ],
            [
              -46.08989130230053,
              -16.32850864644891
            ],
            [
              -46.091849143977576,
              -16.327668014104738
            ],
            [
              -46.093866221760514,
              -16.327061712085957
            ],
            [
              -46.09592311008766,
              -16.32669557941244
            ],
            [
              -46.098,
              -16.32657314214199
            ],
            [
              -46.10007688991234,
              -16.32669557941244
            ],
            [
              -46.102133778239484,
              -16.327061712085957
            ],
            [
              -46.10415085602242,
              -16.327668014104738
            ],
            [
              -46.10610869769947,
              -16.32850864644891
            ],
            [
              -46.107988448185004,
              -16.329575513369456
            ],
            [
              -46.10977200445428,
              -16.330858340354727
            ],
            [
              -46.11144218988542,
              -16.332344773079587
            ],
            [
              -46.11298291967972,
              -16.334020496384333
            ],
            [
              -46.11437935576701,
              -16.335869372137495
            ],
            [
              -46.115618049704395,
              -16.33787359465487
            ],
            [
              -46.11668707219212,
              -16.340013862177994
            ],
            [
              -46.11757612795924,
              -16.342269562760638
            ],
            [
              -46.11827665491272,
              -16.34461897277309
            ],
            [
              -46.11878190659504,
              -16.347039466112623
            ],
            [
              -46.119087017156296,
              -16.34950773210519
            ],
            [
              -46.11918904821501,
              -16.352
            ],
            [
              -46.119087017156296,
              -16.35449226789481
            ],
            [
              -46.11878190659504,
              -16.356960533887378
            ],
            [
              -46.11827665491272,
              -16.35938102722691
            ],
            [
              -46.11757612795924,
              -16.361730437239363
            ],
            [
              -46.11668707219212,
              -16.363986137822007
            ],
            [
              -46.115618049704395,
              -16.36612640534513
            ],
            [
              -46.11437935576701,
              -16.368130627862506
            ],
            [
              -46.11298291967972,
              -16.369979503615667
            ],
            [
              -46.11144218988542,
              -16.371655226920414
            ],
            [
              -46.10977200445428,
              -16.373141659645274
            ],
            [
              -46.107988448185004,
              -16.374424486630545
            ],
            [
              -46.10610869769947,
              -16.37549135355109
            ],
            [
              -46.10415085602242,
              -16.376331985895263
            ],
            [
              -46.102133778239484,
              -16.376938287914044
            ],
            [
              -46.10007688991234,
              -16.37730442058756
            ],
            [
              -46.098,
              -16.377426857858012
            ],
            [
              -46.09592311008766,
              -16.37730442058756
            ],
            [
              -46.093866221760514,
              -16.376938287914044
            ],
            [
              -46.091849143977576,
              -16.376331985895263
            ],
            [
              -46.08989130230053,
              -16.37549135355109
            ],
            [
              -46.08801155181499,
              -16.374424486630545
            ],
            [
              -46.08622799554572,
              -16.373141659645274
            ],
            [
              -46.084557810114575,
              -16.371655226920414
            ],
            [
              -46.083017080320275,
              -16.369979503615667
            ],
            [
              -46.08162064423299,
              -16.368130627862506
            ],
            [
              -46.0803819502956,
              -16.36612640534513
            ],
            [
              -46.07931292780788,
              -16.363986137822007
            ],
            [
              -46.07842387204076,
              -16.361730437239363
            ],
            [
              -46.07772334508728,
              -16.35938102722691
            ],
            [
              -46.07721809340496,
              -16.356960533887378
            ],
            [
              -46.0769129828437,
              -16.35449226789481
            ],
            [
              -46.076810951784985,
              -16.352
            ]
          ]
        ]
      }
    }
  ]
}