{
  "type": "FeatureCollection",
  "features": [
    {
      "type": "Feature",
      "properties": {
        "source": "mca_gold_synthetic",
        "targetAreaHa": 2073.8318
      },
      "geometry": {
        "type": "Polygon",
        "coordinates": [
          [
            [
              -46.08491984979825,
              -16.368
            ],
            [
              -46.08503098702991,
              -16.365285299614616
            ],
            [
              -46.085363328412626,
              -16.36259674327795
            ],
            [
              -46.08591367331718,
              -16.35996022325724
            ],
            [
              -46.08667672162131,
              -16.35740113068155
            ],
            [
              -46.08764512475272,
              -16.354944111011328
            ],
            [
              -46.088809556459864,
              -16.352612826689143
            ],
            [
              -46.090158802628864,
              -16.350429729257424
            ],
            [
              -46.091679869281535,
              -16.348415843137843
            ],
            [
              -46.093358107714515,
              -16.346590563154635
            ],
            [
              -46.09517735557428,
              -16.344971467751837
            ],
            [
              -46.097120092509435,
              -16.343574149703265
            ],
            [
              -46.09916760890129,
              -16.342412065945577
            ],
            [
              -46.101300186047695,
              -16.34149640798062
            ],
            [
              -46.10349728606496,
              -16.34083599409515
            ],
            [
              -46.105737749678845,
              -16.3404371844359
            ],
            [
              -46.108,
              -16.340303819757896
            ],
            [
              -46.11026225032115,
              -16.3404371844359
            ],
            [
              -46.11250271393504,
              -16.34083599409515
            ],
            [
              -46.1146998139523,
              -16.34149640798062
            ],
            [
              -46.116832391098704,
              -16.342412065945577
            ],
            [
              -46.11887990749056,
              -16.343574149703265
            ],
            [
              -46.120822644425715,
              -16.344971467751837
            ],
            [
              -46.12264189228548,
              -16.346590563154635
            ],
            [
              -46.12432013071846,
              -16.348415843137843
            ],
            [
              -46.12584119737113,
              -16.350429729257424
            ],
            [
              -46.12719044354013,
              -16.352612826689143
            ],
            [
              -46.128354875247275,
              -16.354944111011328
            ],
            [
              -46.129323278378685,
              -16.35740113068155
            ],
            [
              -46.130086326682815,
              -16.35996022325724
            ],
            [
              -46.13063667158737,
              -16.36259674327795
            ],
            [
              -46.130969012970084,
              -16.365285299614616
            ],
            [
              -46.13108015020175,
              -16.368
            ],
            [
              -46.130969012970084,
              -16.37071470038538
            ],
            [
              -46.13063667158737,
              -16.373403256722046
            ],
            [
              -46.130086326682815,
              -16.376039776742758
            ],
            [
              -46.129323278378685,
              -16.37859886931845
            ],
            [
              -46.128354875247275,
              -16.38105588898867
            ],
            [
              -46.12719044354013,
              -16.383387173310854
            ],
            [
              -46.12584119737113,
              -16.385570270742573
            ],
            [
              -46.12432013071846,
              -16.387584156862154
            ],
            [
              -46.12264189228548,
              -16.389409436845362
            ],
            [
              -46.120822644425715,
              -16.39102853224816
            ],
            [
              -46.11887990749056,
              -16.392425850296732
            ],
            [
              -46.116832391098704,
              -16.39358793405442
            ],
            [
              -46.1146998139523,
              -16.394503592019376
            ],
            [
              -46.11250271393504,
              -16.395164005904846
            ],
            [
              -46.11026225032115,
              -16.395562815564098
            ],
            [
              -46.108,
              -16.3956961802421
            ],
            [
              -46.105737749678845,
              -16.395562815564098
            ],
            [
              -46.10349728606496,
              -16.395164005904846
            ],
            [
              -46.101300186047695,
              -16.394503592019376
            ],
            [
              -46.09916760890129,
              -16.39358793405442
            ],
            [
              -46.097120092509435,
              -16.392425850296732
            ],
            [
              -46.09517735557428,
              -16.39102853224816
            ],
            [
              -46.093358107714515,
              -16.389409436845362
            ],
            [
              -46.091679869281535,
              -16.387584156862154
            ],
            [
              -46.090158802628864,
              -16.385570270742573
            ],
            [
              -46.088809556459864,
              -16.383387173310854
            ],
            [
              -46.08764512475272,
              -16.38105588898867
            ],
            [
              -46.08667672162131,
              -16.37859886931845
            ],
            [
              -46.08591367331718,
              -16.376039776742758
            ],
            [
              -46.085363328412626,
              -16.373403256722046
            ],
            [
              -46.08503098702991,
              -16.37071470038538
            ],
            [
              -46.08491984979825,
              -16.368
            ]
          ]
        ]
      }
    }
  ]
}